C/2017 K5 (PANSTARRS),h,03/26.9307/2020,82.2326,102.3713,172.0250,1.005884,7.681418,2000,5.0,4.0
# From MPC114599
C/2017 K6 (Jacques),e,57.2395,85.0005,303.7529,1103,0.0000269,0.99819022,0.0000,01/03.6107/2018,2000,g 11.0,4.0
# From MPC xxxxx
C/2017 M3 (PANSTARRS),e,77.5764,7.0288,110.3113,166.7505,0.0004577,0.97208462,0.0000,04/28.1546/2017,2000,g 10.5,4.0
# From MPC xxxxx
C/2017 M4 (ATLAS),h,01/17.9480/2019,105.6487,65.8973,167.6118,1.001327,3.253554,2000,6.0,4.0
# From MPC118841
C/2017 M5 (TOTAS),h,06/04.4222/2018,15.8728,216.2865,92.7950,1.005510,5.996893,2000,6.5,4.0
# From MPC114599
C/2017 O1 (ASASSN),e,39.9374,25.7400,20.8353,360.1923,0.0001442,0.99585555,0.0000,10/15.1516/2017,2000,g 11.0,4.0
# From MPC114599
P/2017 P1 (PANSTARRS),e,7.6940,221.3921,122.4130,7.901079,0.0443787,0.31096683,50.7517,08/07.0/2021,2000,g 10.0,4.0
# From MPC114599
C/2017 P2 (PANSTARRS),e,50.0495,165.4645,132.4221,2371,0.0000085,0.99895896,0.0000,12/06.5364/2017,2000,g 10.0,4.0
# From MPC114599
P/2017 R1 (PANSTARRS),e,2.5744,143.6164,178.6495,4.135015,0.1172164,0.19570718,185.0955,08/07.0/2021,2000,g 13.5,4.0
# From MPC108595
C/2017 S2 (PANSTARRS),e,12.6740,62.3737,306.0073,20.58062,0.0105564,0.82451848,15.1786,08/07.0/2021,2000,g 13.0,4.0
# From MPC114599
C/2017 S3 (PANSTARRS),h,08/16.1702/2018,99.1867,171.2732,255.8277,1.000061,0.207420,2000,11.0,4.0
# From MPC114599
P/2017 S5 (ATLAS),e,11.8527,252.3662,99.8996,3.167433,0.1748408,0.31439121,256.9384,08/07.0/2021,2000,g 14.0,4.0
# From MPC109591
C/2017 S6 (Catalina),h,02/26.2441/2018,152.8674,131.0439,134.8608,1.000697,1.546468,2000,12.5,4.0
# From MPC114599
C/2017 S7 (Lemmon),e,124.2265,262.7634,187.5439,18637,0.0000004,0.99959188,0.0000,05/24.4936/2017,2000,g  7.0,4.0
# From MPC114599
P/2017 S8 (PANSTARRS),e,29.8352,191.5581,254.7625,2.780944,0.2125278,0.39153875,273.8981,08/07.0/2021,2000,g 16.0,4.0
# From MPC107050
P/2017 S9 (PANSTARRS),e,14.1439,146.2233,237.6969,3.153656,0.1759878,0.30530469,259.7447,08/07.0/2021,2000,g 17.0,4.0
# From MPC114600
C/2017 T1 (Heinze),e,96.8568,102.3739,96.9704,14139,0.0000006,0.99995870,0.0000,02/20.9820/2018,2000,g 14.5,4.0
# From MPEC 2021-P47
C/2017 T2 (PANSTARRS),e,57.2264,64.3772,92.9978,2482,0.0000080,0.99934914,0.0000,05/04.8958/2020,2000,g  5.0,4.0
# From MPC114600
C/2017 T3 (ATLAS),e,88.1164,230.1224,246.8289,1179,0.0000244,0.99930015,0.0000,07/18.8465/2018,2000,g 10.0,4.0
# From MPC115882
P/2017 TW13 (Lemmon),e,44.8502,322.2987,119.9594,7.140996,0.0516495,0.70957630,59.0383,08/07.0/2021,2000,g 15.0,2.0
# From MPC114600
C/2017 U2 (Fuls),e,95.3864,149.7062,147.8221,2937,0.0000062,0.99771550,0.0000,08/28.1813/2017,2000,g  9.0,4.0
# From MPC114600
P/2017 U3 (PANSTARRS),e,15.9180,165.1094,296.7112,4.928723,0.0900746,0.09891884,76.1082,08/07.0/2021,2000,g 11.0,4.0
# From MPC xxxxx
C/2017 U4 (PANSTARRS),h,09/22.9589/2018,158.2122,245.9366,159.0072,1.001728,7.720606,2000,7.0,4.0
# From MPC114600
C/2017 U5 (PANSTARRS),e,18.9770,163.0857,262.0064,16.87819,0.0142140,0.74412246,18.8678,08/07.0/2021,2000,g 12.0,4.0
# From MPEC 2021-P47
C/2017 U7 (PANSTARRS),h,09/14.2273/2019,142.5917,276.2450,326.3263,1.000488,6.423931,2000,8.3,2.0
# From MPC114600
C/2017 W2 (Leonard),e,98.1991,312.8411,168.9905,13.64579,0.0195527,0.71052442,26.8848,08/07.0/2021,2000,g 11.0,4.0
# From MPC114601
P/2017 W3 (Gibbs),e,18.1669,210.2651,327.8410,7.841041,0.0448894,0.50708240,56.3567,08/07.0/2021,2000,g 10.5,4.0
# From MPC115883
C/2017 X1 (PANSTARRS),e,31.3088,251.1319,283.2703,31.24146,0.0056443,0.85053927,6.4857,08/07.0/2021,2000,g 10.0,4.0
# From MPC117069
C/2017 Y1 (PANSTARRS),e,55.2653,307.5273,134.2787,1762,0.0000133,0.99789543,0.0000,08/31.2448/2017,2000,g 11.5,4.0
# From MPEC 2021-P47
C/2017 Y2 (PANSTARRS),h,11/04.8190/2020,128.4128,65.9943,147.9025,1.000739,4.632405,2000,15.0,4.0
# From MPC111770
P/2017 Y3 (Leonard),e,27.5572,153.8422,67.6111,9.841733,0.0319225,0.86994626,40.6596,08/07.0/2021,2000,g 16.5,4.0
# From MPC114601
C/2018 A1 (PANSTARRS),e,53.6140,336.6597,96.2330,25.09580,0.0078398,0.90387418,10.8686,08/07.0/2021,2000,g 12.5,4.0
# From MPC xxxxx
C/2018 A3 (ATLAS),e,139.5385,194.2933,86.3754,437.5029,0.0001077,0.99251302,0.0000,01/12.3524/2019,2000,g  8.5,4.0
# From MPC114601
C/2018 A4 (PANSTARRS),e,3.1486,97.6209,356.0080,12.19337,0.0231483,0.80336826,27.2333,08/07.0/2021,2000,g 14.0,4.0
# From MPC109147
P/2018 A5 (PANSTARRS),e,23.5852,87.8163,359.5358,5.633241,0.0737168,0.52244446,104.2346,08/07.0/2021,2000,g 15.0,4.0
# From MPEC 2021-P47
C/2018 A6 (Gibbs),e,77.0380,340.3777,264.5051,15.22927,0.0165839,0.80177443,12.5270,08/07.0/2021,2000,g  9.0,4.0
# From MPC118841
C/2018 B1 (Lemmon),h,03/29.0710/2018,162.4200,133.1909,68.3205,1.000258,5.118514,2000,9.0,4.0
# From MPC114601
P/2018 C1 (Lemmon-Read),e,5.1173,270.3688,235.7091,5.654298,0.0733054,0.53256540,92.2866,08/07.0/2021,2000,g 13.5,4.0
# From MPC114601
C/2018 C2 (Lemmon),h,06/01.4060/2018,34.4607,91.1621,134.1064,1.000567,1.959308,2000,13.0,4.0
# From MPC xxxxx
C/2018 DO4 (Lemmon),e,160.4626,251.3002,176.2014,25.61653,0.0076019,0.90587499,5.4739,08/07.0/2021,2000,g 11.0,4.0
# From MPC114602
C/2018 E1 (ATLAS),e,72.5170,146.8685,299.3631,53.89610,0.0024910,0.94990863,3.0080,08/07.0/2021,2000,g 10.5,4.0
# From MPC114602
C/2018 E2 (Barros),e,97.6874,67.1871,277.4574,3977,0.0000039,0.99901448,0.0000,12/24.0338/2017,2000,g 10.5,4.0
# From MPC114602
C/2018 EN4 (NEOWISE),e,81.7410,136.1354,35.0334,18.17499,0.0127202,0.92004458,14.7265,08/07.0/2021,2000,g 15.0,4.0
# From MPC114602
C/2018 EF9 (Lemmon),e,84.6258,172.5586,72.6203,520.9338,0.0000829,0.99700850,0.0000,05/22.5099/2018,2000,g 18.0,2.0
# From MPC115883
C/2018 F1 (Grauer),e,46.0777,177.2758,71.6260,272.3565,0.0002193,0.98900376,0.0000,12/13.4617/2018,2000,g 11.5,4.0
# From MPC110084
C/2018 F3 (Johnson),p,08/15.2314/2017,105.5348,293.0113,2.483172,173.0311,2000,13.0,4.0
# From MPC xxxxx
C/2018 F4 (PANSTARRS),h,12/04.0748/2019,78.0898,26.5150,263.2307,1.001103,3.440936,2000,11.0,6.0
# From MPC114602
P/2018 H2 (PANSTARRS),e,7.3895,68.3501,119.9488,4.390430,0.1071380,0.54036560,138.5089,08/07.0/2021,2000,g 16.6,2.0
# From MPC114602
C/2018 K1 (Weiland),e,164.1948,260.0693,325.1305,30.04752,0.0059840,0.93733601,7.2890,08/07.0/2021,2000,g 14.9,4.0
# From MPC xxxxx
C/2018 KJ3 (Lemmon),e,136.7048,91.6103,217.6818,897.9474,0.0000366,0.99595798,0.0000,09/09.8154/2019,2000,g 12.2,2.0
# From MPC114602
P/2018 L1 (PANSTARRS),e,10.5899,268.6319,18.0059,3.651549,0.1412500,0.48266826,141.0298,08/07.0/2021,2000,g 15.0,4.0
# From MPC xxxxx
C/2018 L2 (ATLAS),e,67.3599,243.0216,56.2868,261.4846,0.0002331,0.99344766,0.0000,12/02.6829/2018,2000,g 10.0,4.0
# From MPC114603
P/2018 L4 (PANSTARRS),e,26.6256,145.1514,140.5923,4.942026,0.0897112,0.65996971,98.8811,08/07.0/2021,2000,g 17.5,4.0
# From MPC119996
P/2018 L5 (Leonard),e,2.2081,219.1032,93.8536,3.628123,0.1426202,0.36472194,169.6742,08/07.0/2021,2000,g 14.5,4.0
# From MPC117070
C/2018 M1 (Catalina),e,37.3000,339.4099,14.1796,21.39284,0.0099610,0.93911268,11.1915,08/07.0/2021,2000,g 15.5,4.0
# From MPC112393
C/2018 N1 (NEOWISE),e,159.4407,292.4568,354.6583,362.6948,0.0001427,0.99638640,0.0000,08/02.0382/2018,2000,g 15.5,4.0
# From MPEC 2021-P47
C/2018 N2 (ASASSN),h,11/10.9963/2019,77.5328,25.2330,24.4128,1.000201,3.125049,2000,6.0,4.0
# From MPC114603
C/2018 O1 (ATLAS),e,154.0334,87.6705,162.6223,27.97442,0.0066614,0.94420318,7.1363,08/07.0/2021,2000,g 17.0,4.0
# From MPC114603
P/2018 P3 (PANSTARRS),e,8.9102,59.1731,305.8926,3.005753,0.1891360,0.41670585,195.1680,08/07.0/2021,2000,g 14.5,4.0
# From MPC114603
P/2018 P4 (PANSTARRS),e,23.1086,353.0663,8.2662,6.674896,0.0571528,0.45057154,57.3094,08/07.0/2021,2000,g 12.0,4.0
# From MPC xxxxx
C/2018 P5 (PANSTARRS),e,7.2511,216.2333,131.7739,12.81236,0.0214912,0.64262318,19.1626,08/07.0/2021,2000,g 11.0,4.0
# From MPC118841
C/2018 R3 (Lemmon),e,69.7300,324.6429,112.8050,1601,0.0000154,0.99919530,0.0000,06/07.3037/2019,2000,g  9.5,4.0
# From MPC112393
C/2018 R4 (Fuls),e,11.6823,298.4486,345.3046,334.9684,0.0001608,0.99487713,0.0000,03/03.5229/2018,2000,g 14.0,4.0
# From MPC114603
C/2018 R5 (Lemmon),e,103.7486,171.1197,178.0751,22.79518,0.0090561,0.84098842,8.5125,08/07.0/2021,2000,g 11.5,4.0
# From MPEC 2021-P47
C/2018 U1 (Lemmon),h,11/03.0140/2021,108.2967,75.4805,180.4558,1.001319,4.993000,2000,5.0,4.0
# From MPC114604
C/2018 V1 (Machholz-Fujikawa-Iwamoto),h,12/03.1328/2018,144.0554,128.8856,88.8690,1.000333,0.386991,2000,12.0,4.0
# From MPC115884
C/2018 V2 (ATLAS),e,159.1679,357.0854,318.9433,25.07095,0.0078514,0.90115701,7.7331,08/07.0/2021,2000,g 15.0,4.0
# From MPC114604
P/2018 VN2 (Leonard),e,18.2517,226.4951,138.7607,4.064414,0.1202838,0.47866643,139.2883,08/07.0/2021,2000,g 15.0,4.0
# From MPC xxxxx
A/2018 V3,e,164.9778,308.6573,3.5437,123.2530,0.0007203,0.98911982,0.0000,09/08.7058/2019,2000,g 15.7,2.0
# From MPC114604
C/2018 V4 (Africano),e,69.0054,78.3508,359.9307,204.3440,0.0003374,0.98435816,0.0000,03/01.3746/2019,2000,g 12.5,4.0
# From MPC xxxxx
P/2018 V5 (Trujillo-Sheppard),e,10.5871,171.2871,260.6703,8.954195,0.0367844,0.47477654,38.2278,08/07.0/2021,2000,g 12.5,4.0
# From MPC xxxxx
C/2018 W1 (Catalina),e,83.2868,233.6035,251.2434,21.68627,0.0097595,0.93725795,7.9865,08/07.0/2021,2000,g 15.5,2.0
# From MPC xxxxx
C/2018 W2 (Africano),h,09/05.5726/2019,116.6200,181.8367,157.9819,1.000390,1.455811,2000,9.5,4.0
# From MPC119996
C/2018 X2 (Fitzsimmons),e,23.0693,340.8312,162.0361,144.9328,0.0005649,0.98532977,0.0000,07/08.3084/2019,2000,g 12.0,4.0
# From MPC114604
C/2018 X3 (PANSTARRS),e,43.3757,78.8926,359.7401,12.37191,0.0226490,0.78216244,21.5261,08/07.0/2021,2000,g 14.5,4.0
# From MPC118842
C/2018 Y1 (Iwamoto),e,160.3986,147.5148,358.0005,138.5532,0.0006043,0.99073010,0.0000,02/06.9126/2019,2000,g 11.5,4.0
# From MPC114605
P/2018 Y2 (Africano),e,11.6825,297.2604,162.3115,7.458946,0.0483825,0.47862937,45.8896,08/07.0/2021,2000,g 11.5,4.0
# From MPC114605
